{
  "norad_id": 58204,
  "name": "TJS-10",
  "history": [
    {
      "epoch": "2026-03-28T17:25:38.532288",
      "apogee_km": 35976.92792465185,
      "perigee_km": 35886.52021351943,
      "latitude_deg": 1.7163218358477204,
      "longitude_deg": 70.10948032001033,
      "semi_major_axis_km": 42309.86106908564,
      "eccentricity": 0.0010684,
      "inclination_deg": 2.3379,
      "raan_deg": 81.4338,
      "arg_perigee_deg": 237.1783,
      "mean_anomaly_deg": 205.4408,
      "mean_motion_rev_day": 0.99756307
    }
  ]
}